H-2A R/B                
1 28932U 06002B   26170.03196940  .00005593  00000+0  26985-3 0  9994
2 28932  98.2571 326.0274 0049602 255.8293 103.7425 15.18079999109805
RESURS-DK 1             
1 29228U 06021A   26169.88624838  .00001578  00000+0  94692-4 0  9997
2 29228  69.9330 335.1550 0006884 291.0960  68.9469 15.13223482102837
CZ-4B R/B               
1 29507U 06046C   26170.09881481  .00002845  00000+0  14256-3 0  9993
2 29507  97.5448 214.7001 0030964 275.7477  84.0226 15.17794744 75427
CZ-2C R/B               
1 31114U 07010B   26170.24382688  .00000056  00000+0  44612-4 0  9996
2 31114  98.4101 278.4941 0058891   0.1393 359.9791 14.20276507994130
COSMO-SKYMED 1          
1 31598U 07023A   26170.27379564  .00002291  00000+0  20374-3 0  9999
2 31598  97.8850   2.1469 0001457  98.2200 261.9187 14.97108574 30109
COSMOS 2428             
1 31792U 07029A   26170.19677095 -.00000099  00000+0 -27670-4 0  9995
2 31792  70.9350 350.2580 0007130 131.1974 228.9763 14.12927953978439
SL-16 R/B               
1 31793U 07029B   26170.18162222  .00000026  00000+0  38309-4 0  9995
2 31793  70.9770 319.0353 0002365 262.6787 269.8344 14.14855572979725
KORONAS-FOTON           
1 33504U 09003A   26170.27952469  .00009329  00000+0  19159-3 0  9997
2 33504  82.4289 170.0769 0011879 140.7743 219.4369 15.45756542961422
CZ-2C R/B               
1 37731U 11030B   26170.12526339  .00000994  00000+0  13073-3 0  9991
2 37731  97.8655 125.4764 0052904  21.7615 348.8026 14.81475463805113
H-2A R/B                
1 38341U 12025E   26170.23074544  .00001898  00000+0  17355-3 0  9993
2 38341  98.4834 145.5448 0043506 342.5301  17.4418 14.95729495763392
SHIJIAN-16 (SJ-16)      
1 39358U 13057A   26170.31724275  .00000322  00000+0  34060-4 0  9994
2 39358  74.9728 352.6482 0016746 225.8357 134.1456 14.92606779686660
SL-4 R/B                
1 39679U 14021B   26170.26735988  .00007948  00000+0  16723-3 0  9995
2 39679  51.6040 200.5796 0091152 113.5322 247.5272 15.41990775671939
ALOS-2                  
1 39766U 14029A   26170.30342074  .00001156  00000+0  16164-3 0  9999
2 39766  97.9224 267.4364 0001663  92.4797 267.6605 14.79474763651895
YAOGAN-29               
1 41038U 15069A   26170.33678862  .00000052  00000+0  13066-4 0  9992
2 41038  98.0021 198.9736 0002528  51.4321 308.7118 14.83086468570945
ASTRO-H (HITOMI)        
1 41337U 16012A   26170.14882152  .00001996  00000+0  11244-3 0  9994
2 41337  30.9995  61.5179 0009774 273.2762  86.6758 15.10517915567586
HXMT (HUIYAN)           
1 42758U 17034A   26170.30503236  .00002220  00000+0  11613-3 0  9999
2 42758  43.0125 171.2479 0030855 160.8186 199.3831 15.18487103497984
SAOCOM 1A               
1 43641U 18076A   26170.29638133  .00000460  00000+0  64314-4 0  9992
2 43641  97.8882 357.0136 0001598  79.6598 280.4795 14.82150752416410
H-2A R/B                
1 43682U 18084L   26170.26524694  .00017999  00000+0  37713-3 0  9996
2 43682  98.8568  49.6087 0023285  33.5170 326.7542 15.45222154421447
SAOCOM 1B               
1 46265U 20059A   26170.26002752 -.00000107  00000+0 -68257-5 0  9991
2 46265  97.8884 356.0726 0001578  85.1027 275.0366 14.82145677313799
CSS (TIANHE)            
1 48274U 21035A   26170.28047081  .00020720  00000+0  24379-3 0  9990
2 48274  41.4696 309.2621 0007370  95.5475 264.6205 15.60892047293496
COSMOS 2550             
1 48865U 21056A   26168.93698449  .00006747  00000+0  21059-3 0  9993
2 48865  67.1435  97.6381 0008342 268.6108  91.4090 15.33847751278836
CZ-2C R/B               
1 52794U 22058K   26170.22536838  .00034265  00000+0  37907-3 0  9995
2 52794  50.1845 152.9114 0032444 276.4097  83.3182 15.61982999225965
CZ-2C R/B               
1 54039U 22132E   26169.99895998  .00050925  00000+0  39234-3 0  9995
2 54039  97.2902 177.1038 0015828  78.4845 281.8195 15.71671836206231
GSLV R/B                
1 54149U 22138AN  26169.92228693  .00002039  00000+0  17264-3 0  9990
2 54149  87.3806 132.4017 0023041 137.7802 222.5210 14.97263482199079
XRISM                   
1 57800U 23137A   26170.17049410  .00004132  00000+0  22610-3 0  9991
2 57800  31.0033 346.7545 0007944 343.4545  16.5834 15.12481755153160
ACS3                    
1 59588U 24077B   26170.21516120  .00041828  00000+0  30561-1 0  9997
2 59588  97.1689  88.5531 0079719  62.3724 298.5508 13.94205324108328
CZ-8A R/B               
1 66004U 25231K   26170.28800177 -.00000018  00000+0  51915-4 0  9992
2 66004  50.0053  30.3782 0116483 231.4081 127.6356 14.30155399 35240
