OBJECT_NAME,OBJECT_ID,EPOCH,MEAN_MOTION,ECCENTRICITY,INCLINATION,RA_OF_ASC_NODE,ARG_OF_PERICENTER,MEAN_ANOMALY,EPHEMERIS_TYPE,CLASSIFICATION_TYPE,NORAD_CAT_ID,ELEMENT_SET_NO,REV_AT_EPOCH,BSTAR,MEAN_MOTION_DOT,MEAN_MOTION_DDOT
H-2A R/B,2006-002B,2026-06-19T00:46:02.156160,15.18079999,.00496024,98.2571,326.0274,255.8293,103.7425,0,U,28932,999,10980,.26985267E-3,.5593E-4,0
RESURS-DK 1,2006-021A,2026-06-18T21:16:11.860032,15.13223482,.0006884,69.9330,335.1550,291.0960,68.9469,0,U,29228,999,10283,.94692E-4,.1578E-4,0
CZ-4B R/B,2006-046C,2026-06-19T02:22:17.599584,15.17794744,.0030964,97.5448,214.7001,275.7477,84.0226,0,U,29507,999,7542,.1425559E-3,.2845E-4,0
CZ-2C R/B,2007-010B,2026-06-19T05:51:06.642432,14.20276507,.00588911,98.4101,278.4941,0.1393,359.9791,0,U,31114,999,99413,.44612304E-4,.56E-6,0
COSMO-SKYMED 1,2007-023A,2026-06-19T06:34:15.943296,14.97108574,.00014576,97.8850,2.1469,98.2200,261.9187,0,U,31598,999,3010,.20373535E-3,.2291E-4,0
COSMOS 2428,2007-029A,2026-06-19T04:43:21.010080,14.12927953,.00071302,70.9350,350.2580,131.1974,228.9763,0,U,31792,999,97843,-.27669922E-4,-.99E-6,0
SL-16 R/B,2007-029B,2026-06-19T04:21:32.159808,14.14855572,.00023659,70.9770,319.0353,262.6787,269.8344,0,U,31793,999,97972,.38309398E-4,.26E-6,0
KORONAS-FOTON,2009-003A,2026-06-19T06:42:30.933216,15.45756542,.00118791,82.4289,170.0769,140.7743,219.4369,0,U,33504,999,96142,.19159275E-3,.9329E-4,0
CZ-2C R/B,2011-030B,2026-06-19T03:00:22.756896,14.81475463,.00529045,97.8655,125.4764,21.7615,348.8026,0,U,37731,999,80511,.13072639E-3,.994E-5,0
H-2A R/B,2012-025E,2026-06-19T05:32:16.406016,14.95729495,.0043506,98.4834,145.5448,342.5301,17.4418,0,U,38341,999,76339,.17354682E-3,.1898E-4,0
SHIJIAN-16 (SJ-16),2013-057A,2026-06-19T07:36:49.773600,14.92606779,.00167462,74.9728,352.6482,225.8357,134.1456,0,U,39358,999,68666,.34059603E-4,.322E-5,0
SL-4 R/B,2014-021B,2026-06-19T06:24:59.893632,15.41990775,.00911523,51.6040,200.5796,113.5322,247.5272,0,U,39679,999,67193,.16722719E-3,.7948E-4,0
ALOS-2,2014-029A,2026-06-19T07:16:55.551936,14.79474763,.00016631,97.9224,267.4364,92.4797,267.6605,0,U,39766,999,65189,.16163866E-3,.1156E-4,0
YAOGAN-29,2015-069A,2026-06-19T08:04:58.536768,14.83086468,.00025283,98.0021,198.9736,51.4321,308.7118,0,U,41038,999,57094,.13066162E-4,.52E-6,0
ASTRO-H (HITOMI),2016-012A,2026-06-19T03:34:18.179328,15.10517915,.00097746,30.9995,61.5179,273.2762,86.6758,0,U,41337,999,56758,.11243593E-3,.1996E-4,0
HXMT (HUIYAN),2017-034A,2026-06-19T07:19:14.795904,15.18487103,.00308554,43.0125,171.2479,160.8186,199.3831,0,U,42758,999,49798,.11612768E-3,.222E-4,0
SAOCOM 1A,2018-076A,2026-06-19T07:06:47.346912,14.82150752,.00015987,97.8882,357.0136,79.6598,280.4795,0,U,43641,999,41641,.64314326E-4,.46E-5,0
H-2A R/B,2018-084L,2026-06-19T06:21:57.335616,15.45222154,.00232859,98.8568,49.6087,33.5170,326.7542,0,U,43682,999,42144,.37713207E-3,.17999E-3,0
SAOCOM 1B,2020-059A,2026-06-19T06:14:26.377728,14.82145677,.00015785,97.8884,356.0726,85.1027,275.0366,0,U,46265,999,31379,-.6825687E-5,-.107E-5,0
CSS (TIANHE),2021-035A,2026-06-19T06:43:52.677984,15.60892047,.00073705,41.4696,309.2621,95.5475,264.6205,0,U,48274,999,29349,.24378634E-3,.2072E-3,0
COSMOS 2550,2021-056A,2026-06-17T22:29:15.459936,15.33847751,.00083421,67.1435,97.6381,268.6108,91.4090,0,U,48865,999,27883,.21058896E-3,.6747E-4,0
CZ-2C R/B,2022-058K,2026-06-19T05:24:31.828032,15.61982999,.00324446,50.1845,152.9114,276.4097,83.3182,0,U,52794,999,22596,.3790664E-3,.34265E-3,0
CZ-2C R/B,2022-132E,2026-06-18T23:58:30.142272,15.71671836,.00158288,97.2902,177.1038,78.4845,281.8195,0,U,54039,999,20623,.39234369E-3,.50925E-3,0
GSLV R/B,2022-138AN,2026-06-18T22:08:05.590752,14.97263482,.0023041,87.3806,132.4017,137.7802,222.5210,0,U,54149,999,19907,.17264E-3,.2039E-4,0
XRISM,2023-137A,2026-06-19T04:05:30.690240,15.12481755,.00079442,31.0033,346.7545,343.4545,16.5834,0,U,57800,999,15316,.22609615E-3,.4132E-4,0
ACS3,2024-077B,2026-06-19T05:09:49.927680,13.94205324,.00797193,97.1689,88.5531,62.3724,298.5508,0,U,59588,999,10832,.30560714E-1,.41828E-3,0
CZ-8A R/B,2025-231K,2026-06-19T06:54:43.352928,14.30155399,.01164836,50.0053,30.3782,231.4081,127.6356,0,U,66004,999,3524,.51914506E-4,-.18E-6,0
